{
  "norad_id": 63213,
  "name": "TEVEL2-4",
  "history": [
    {
      "epoch": "2026-03-28T10:45:39.178368",
      "apogee_km": 473.70185436722477,
      "perigee_km": 467.83343890979904,
      "latitude_deg": 20.068306159673625,
      "longitude_deg": -175.6564684798941,
      "semi_major_axis_km": 6848.904646638512,
      "eccentricity": 0.00042842,
      "inclination_deg": 97.3996,
      "raan_deg": 343.8393,
      "arg_perigee_deg": 59.984,
      "mean_anomaly_deg": 300.1826,
      "mean_motion_rev_day": 15.31690724
    }
  ]
}